GLOBALSTAR M084         
1 38040U 11080A   23306.08693073 -.00000105  00000+0 -49740-5 0  9991
2 38040  52.0022  54.0859 0000794 129.6191  42.5788 12.62267136548049
GLOBALSTAR M080         
1 38041U 11080B   23305.74215826 -.00000103  00000+0  23523-5 0  9998
2 38041  52.0072  56.5333 0001035 126.6896  38.2050 12.62265687547847
GLOBALSTAR M082         
1 38042U 11080C   23306.19782858 -.00000074  00000+0  16403-3 0  9997
2 38042  52.0103  10.5310 0000420  14.1329   3.5313 12.62267354548781
GLOBALSTAR M092         
1 38043U 11080D   23306.20510612 -.00000108  00000+0 -22582-4 0  9992
2 38043  52.0068 100.8503 0000822 124.9258  46.4770 12.62273872547274
GLOBALSTAR M090         
1 38044U 11080E   23306.14478716 -.00000079  00000+0  14016-3 0  9992
2 38044  51.9914   5.2643 0000382  63.8969 313.6091 12.62262767548768
GLOBALSTAR M086         
1 38045U 11080F   23305.88864369 -.00000079  00000+0  13873-3 0  9996
2 38045  51.9923   6.5505 0001372  90.3419  81.5779 12.62263723548638
GLOBALSTAR M097         
1 39072U 13005A   23305.63982863 -.00000088  00000+0  87820-4 0  9993
2 39072  52.0049 281.2532 0000787  48.9354 311.1580 12.62272139495856
GLOBALSTAR M093         
1 39073U 13005B   23306.16761033 -.00000080  00000+0  13434-3 0  9998
2 39073  51.9809 273.8982 0001047  48.2007 311.8948 12.62268195495990
